NUSAT-50 (NANCY ROMAN)  
1 60493U 24149AB  26068.80227738  .00012094  00000+0  42252-3 0  9994
2 60493  97.3817 150.7693 0002523 238.0469 122.0527 15.29713355 86930
STARLINK-35893          
1 66565U 25268J   26068.17653314  .00027668  00000+0  10110-2 0  9996
2 66565  43.0028 349.7575 0001774 257.0329 103.0325 15.27585270 17884
